{
  "type": "FeatureCollection",
  "features": [
    {
      "type": "Feature",
      "properties": {
        "id": "community_of_madrid",
        "name": "Community of Madrid",
        "source": "local_seed_geojson"
      },
      "geometry": {
        "type": "Polygon",
        "coordinates": [
          [
            [-4.5700, 41.1800],
            [-3.8500, 41.2500],
            [-3.0200, 40.9900],
            [-2.8500, 40.3500],
            [-3.2100, 39.8500],
            [-3.9500, 39.6500],
            [-4.6500, 40.0900],
            [-4.5700, 41.1800]
          ]
        ]
      }
    }
  ]
}
