{
  "type": "FeatureCollection",
  "features": [
    {
      "type": "Feature",
      "properties": {
        "id": "greater_manchester",
        "name": "Greater Manchester",
        "source": "local_seed_geojson"
      },
      "geometry": {
        "type": "Polygon",
        "coordinates": [
          [
            [-2.7300, 53.7000],
            [-2.3600, 53.7800],
            [-1.9300, 53.6600],
            [-1.8100, 53.3800],
            [-2.0500, 53.2100],
            [-2.4600, 53.2400],
            [-2.7400, 53.4200],
            [-2.7300, 53.7000]
          ]
        ]
      }
    }
  ]
}
