{
  "type": "FeatureCollection",
  "features": [
    {
      "type": "Feature",
      "properties": {
        "id": "karnataka",
        "name": "Karnataka",
        "source": "local_seed_geojson"
      },
      "geometry": {
        "type": "Polygon",
        "coordinates": [
          [
            [74.0500, 15.0500],
            [74.7000, 15.6500],
            [76.1000, 15.9500],
            [77.6500, 15.7000],
            [78.6500, 14.9500],
            [78.8000, 13.2500],
            [78.3000, 11.8500],
            [77.2000, 11.0500],
            [75.6500, 11.2500],
            [74.4500, 12.5000],
            [74.0500, 15.0500]
          ]
        ]
      }
    }
  ]
}
