{
  "type": "FeatureCollection",
  "features": [
    {
      "type": "Feature",
      "properties": {
        "id": "maharashtra",
        "name": "Maharashtra",
        "source": "local_seed_geojson"
      },
      "geometry": {
        "type": "Polygon",
        "coordinates": [
          [
            [72.6200, 21.4500],
            [74.6000, 21.9000],
            [76.9000, 21.6000],
            [79.1000, 20.8500],
            [80.9000, 19.6000],
            [80.3000, 18.2500],
            [78.2000, 17.2000],
            [75.7000, 16.2500],
            [73.7000, 16.0500],
            [72.6500, 17.7000],
            [72.6200, 21.4500]
          ]
        ]
      }
    }
  ]
}
